STARLINK-1281           
1 45370U 20019L   26183.18094237  .00046510  00000+0  12680-2 0  9999
2 45370  53.1577 351.4874 0002537 154.9021 205.2107 15.37028512347319
STARLINK-1300           
1 45374U 20019Q   26183.18404380  .00047365  00000+0  12659-2 0  9992
2 45374  53.1595 351.2829 0002274 175.0841 185.0186 15.37637842347317
STARLINK-1302           
1 45375U 20019R   26183.61693347  .00057173  00000+0  46891-3 0  9998
2 45375  53.0459 309.4796 0001844 118.4229 241.6974 15.69942624347919
STARLINK-1304           
1 45376U 20019S   26183.61965127  .00047916  00000+0  46709-3 0  9999
2 45376  53.0420 311.5152 0001058 180.3579 179.7435 15.65769029347882
STARLINK-1305           
1 45377U 20019T   26183.56420464  .00073663  00000+0  48870-3 0  9993
2 45377  53.0380 288.7472 0005499 340.5554  19.5254 15.74830895348201
STARLINK-1319           
1 45379U 20019V   26183.61909279  .00107488  00000+0  50945-3 0  9996
2 45379  53.0356 278.9704 0002503   3.2812 356.8226 15.82181015348341
STARLINK-1266           
1 45383U 20019Z   26183.59635559  .00050783  00000+0  44811-3 0  9995
2 45383  53.0433 296.1396 0002812 337.5570  22.5322 15.68210730348095
STARLINK-1267           
1 45384U 20019AA  26183.47536424  .00070175  00000+0  51448-3 0  9995
2 45384  53.0414 287.6657 0001480  33.9597 326.1515 15.72536413348200
STARLINK-1272           
1 45386U 20019AC  26183.42866403  .00091234  00000+0  54290-3 0  9992
2 45386  53.0384 265.8814 0002076  35.4381 324.6776 15.77241661348509
STARLINK-1274           
1 45387U 20019AD  26183.46606830  .00131096  00000+0  12116-2 0  9994
2 45387  53.0181 266.4453 0005325 283.0624  76.9796 15.66647356348498
STARLINK-1280           
1 45388U 20019AE  26183.58335648  .00174501  00000+0  59940-3 0  9999
2 45388  53.0323 270.4276 0005714   0.2548 264.4326 15.88628922  5991
STARLINK-1283           
1 45389U 20019AF  26183.50618133  .00048555  00000+0  32629-3 0  9999
2 45389  53.0369 264.5409 0003538 335.0960  24.9887 15.74715858348534
STARLINK-1284           
1 45390U 20019AG  26182.47079406  .00072417  00000+0  52434-3 0  9990
2 45390  53.0399 293.8869 0003318  54.8151 305.3177 15.72812860348029
STARLINK-1297           
1 45395U 20019AM  26183.62119816  .00078087  00000+0  49445-3 0  9990
2 45395  53.0403 287.1177 0002087  12.1822 347.9247 15.75893711347400
STARLINK-1307           
1 45397U 20019AP  26183.58317572  .00031837  00000+0  41648-3 0  9995
2 45397  53.0529 295.8419 0001061 321.6073  38.4863 15.58359067347928
STARLINK-1255           
1 45399U 20019AR  26183.47384860  .00049474  00000+0  43819-3 0  9997
2 45399  53.0326 262.4943 0000823 241.3893 118.7040 15.68132575348362
STARLINK-1260           
1 45404U 20019AW  26183.62883873  .00050888  00000+0  12459-2 0  9995
2 45404  53.1557 311.5434 0001918 193.2540 166.8415 15.40291327347626
STARLINK-1263           
1 45405U 20019AX  26183.64688281  .00049066  00000+0  13241-2 0  9990
2 45405  53.1571 313.2419 0001397 242.6829 117.4033 15.37322179347607
STARLINK-1265           
1 45406U 20019AY  26183.61543974  .00047462  00000+0  11472-2 0  9999
2 45406  53.1565 311.5322 0000477 248.3162 111.7793 15.40711414347626
STARLINK-1278           
1 45408U 20019BA  26183.44138464  .00089802  00000+0  54339-3 0  9990
2 45408  53.0398 286.7590 0002350  29.8382 330.2771 15.76869843347936
STARLINK-1296           
1 45412U 20019BE  26183.65193733  .00036742  00000+0  88640-3 0  9995
2 45412  53.1529 311.0161 0001308 192.8178 167.2794 15.40886294347630
STARLINK-1309           
1 45414U 20019BG  26183.54407208  .00074367  00000+0  48089-3 0  9998
2 45414  53.0587 280.4687 0002199  31.0563 329.0586 15.75432368348015
STARLINK-1316           
1 45415U 20019BH  26183.61618758  .00055429  00000+0  13144-2 0  9992
2 45415  53.1561 311.0636 0001628 176.0338 184.0680 15.41219448347658
STARLINK-1286           
1 45417U 20019BK  26183.57235449  .00062109  00000+0  57426-3 0  9996
2 45417  53.0458 292.8965 0004839 338.4248  21.6562 15.66966367348131
STARLINK-1308           
1 45419U 20019BM  26183.06527929  .00062890  00000+0  55316-3 0  9992
2 45419  53.0457 314.5312 0004875 105.5757 254.5797 15.68191575347531
ONEWEB-0066             
1 45424U 20020A   26183.48234025 -.00000380  00000+0 -11076-2 0  9990
2 45424  87.8873  18.0253 0001653  88.5978 271.5339 13.11414740304688
ONEWEB-0067             
1 45425U 20020B   26183.44384751  .00000412  00000+0  11268-2 0  9996
2 45425  87.8900  17.9578 0001834  82.3055 277.8281 13.11426125304738
ONEWEB-0080             
1 45426U 20020C   26183.51979447  .00000330  00000+0  89604-3 0  9996
2 45426  87.8891  18.0159 0001863  97.8248 262.3092 13.11417192304713
ONEWEB-0090             
1 45427U 20020D   26183.47231505  .00000014  00000+0  31993-5 0  9997
2 45427  87.8885  18.0297 0001873  91.1345 268.9997 13.11414721304672
ONEWEB-0061             
1 45428U 20020E   26183.50424427 -.00000262  00000+0 -77600-3 0  9999
2 45428  87.8887  18.0079 0001810  89.1217 271.0118 13.11417477304636
