OBJECT_NAME,OBJECT_ID,EPOCH,MEAN_MOTION,ECCENTRICITY,INCLINATION,RA_OF_ASC_NODE,ARG_OF_PERICENTER,MEAN_ANOMALY,EPHEMERIS_TYPE,CLASSIFICATION_TYPE,NORAD_CAT_ID,ELEMENT_SET_NO,REV_AT_EPOCH,BSTAR,MEAN_MOTION_DOT,MEAN_MOTION_DDOT
STARLINK-1281,2020-019L,2026-07-02T04:20:33.420768,15.37028512,.00025373,53.1577,351.4874,154.9021,205.2107,0,U,45370,999,34731,.12680115E-2,.4651E-3,0
STARLINK-1300,2020-019Q,2026-07-02T04:25:01.384320,15.37637842,.00022749,53.1595,351.2829,175.0841,185.0186,0,U,45374,999,34731,.1265855E-2,.47365E-3,0
STARLINK-1302,2020-019R,2026-07-02T14:48:23.051808,15.69942624,.00018447,53.0459,309.4796,118.4229,241.6974,0,U,45375,999,34791,.46891413E-3,.57173E-3,0
STARLINK-1304,2020-019S,2026-07-02T14:52:17.869728,15.65769029,.00010589,53.0420,311.5152,180.3579,179.7435,0,U,45376,999,34788,.46709166E-3,.47916E-3,0
STARLINK-1305,2020-019T,2026-07-02T13:32:27.280896,15.74830895,.00054994,53.0380,288.7472,340.5554,19.5254,0,U,45377,999,34820,.48869821E-3,.73663E-3,0
STARLINK-1319,2020-019V,2026-07-02T14:51:29.617056,15.82181015,.00025039,53.0356,278.9704,3.2812,356.8226,0,U,45379,999,34834,.50944909E-3,.107488E-2,0
STARLINK-1266,2020-019Z,2026-07-02T14:18:45.122976,15.68210730,.00028129,53.0433,296.1396,337.5570,22.5322,0,U,45383,999,34809,.44810645E-3,.50783E-3,0
STARLINK-1267,2020-019AA,2026-07-02T11:24:31.470336,15.72536413,.000148,53.0414,287.6657,33.9597,326.1515,0,U,45384,999,34820,.51447698E-3,.70175E-3,0
STARLINK-1272,2020-019AC,2026-07-02T10:17:16.572192,15.77241661,.00020764,53.0384,265.8814,35.4381,324.6776,0,U,45386,999,34850,.54289835E-3,.91234E-3,0
STARLINK-1274,2020-019AD,2026-07-02T11:11:08.301120,15.66647356,.00053256,53.0181,266.4453,283.0624,76.9796,0,U,45387,999,34849,.12116122E-2,.131096E-2,0
STARLINK-1280,2020-019AE,2026-07-02T14:00:01.999872,15.88628922,.00057147,53.0323,270.4276,0.2548,264.4326,0,U,45388,999,599,.59940026E-3,.174501E-2,0
STARLINK-1283,2020-019AF,2026-07-02T12:08:54.066912,15.74715858,.00035381,53.0369,264.5409,335.0960,24.9887,0,U,45389,999,34853,.32629278E-3,.48555E-3,0
STARLINK-1284,2020-019AG,2026-07-01T11:17:56.606784,15.72812860,.00033184,53.0399,293.8869,54.8151,305.3177,0,U,45390,999,34802,.52433665E-3,.72417E-3,0
STARLINK-1297,2020-019AM,2026-07-02T14:54:31.521024,15.75893711,.00020876,53.0403,287.1177,12.1822,347.9247,0,U,45395,999,34740,.49445328E-3,.78087E-3,0
STARLINK-1307,2020-019AP,2026-07-02T13:59:46.382208,15.58359067,.0001061,53.0529,295.8419,321.6073,38.4863,0,U,45397,999,34792,.4164789E-3,.31837E-3,0
STARLINK-1255,2020-019AR,2026-07-02T11:22:20.519040,15.68132575,.00008238,53.0326,262.4943,241.3893,118.7040,0,U,45399,999,34836,.43818873E-3,.49474E-3,0
STARLINK-1260,2020-019AW,2026-07-02T15:05:31.666272,15.40291327,.00019189,53.1557,311.5434,193.2540,166.8415,0,U,45404,999,34762,.12458729E-2,.50888E-3,0
STARLINK-1263,2020-019AX,2026-07-02T15:31:30.674784,15.37322179,.00013975,53.1571,313.2419,242.6829,117.4033,0,U,45405,999,34760,.13241197E-2,.49066E-3,0
STARLINK-1265,2020-019AY,2026-07-02T14:46:13.993536,15.40711414,.00004772,53.1565,311.5322,248.3162,111.7793,0,U,45406,999,34762,.114721E-2,.47462E-3,0
STARLINK-1278,2020-019BA,2026-07-02T10:35:35.632896,15.76869843,.00023501,53.0398,286.7590,29.8382,330.2771,0,U,45408,999,34793,.5433873E-3,.89802E-3,0
STARLINK-1296,2020-019BE,2026-07-02T15:38:47.385312,15.40886294,.00013088,53.1529,311.0161,192.8178,167.2794,0,U,45412,999,34763,.88640342E-3,.36742E-3,0
STARLINK-1309,2020-019BG,2026-07-02T13:03:27.827712,15.75432368,.00021994,53.0587,280.4687,31.0563,329.0586,0,U,45414,999,34801,.48089457E-3,.74367E-3,0
STARLINK-1316,2020-019BH,2026-07-02T14:47:18.606912,15.41219448,.00016283,53.1561,311.0636,176.0338,184.0680,0,U,45415,999,34765,.13144494E-2,.55429E-3,0
STARLINK-1286,2020-019BK,2026-07-02T13:44:11.427936,15.66966367,.00048399,53.0458,292.8965,338.4248,21.6562,0,U,45417,999,34813,.57426089E-3,.62109E-3,0
STARLINK-1308,2020-019BM,2026-07-02T01:34:00.130656,15.68191575,.00048758,53.0457,314.5312,105.5757,254.5797,0,U,45419,999,34753,.55315839E-3,.6289E-3,0
ONEWEB-0066,2020-020A,2026-07-02T11:34:34.197600,13.11414740,.00016532,87.8873,18.0253,88.5978,271.5339,0,U,45424,999,30468,-.11076416E-2,-.38E-5,0
ONEWEB-0067,2020-020B,2026-07-02T10:39:08.424864,13.11426125,.00018349,87.8900,17.9578,82.3055,277.8281,0,U,45425,999,30473,.11267798E-2,.412E-5,0
ONEWEB-0080,2020-020C,2026-07-02T12:28:30.242208,13.11417192,.00018639,87.8891,18.0159,97.8248,262.3092,0,U,45426,999,30471,.89604257E-3,.33E-5,0
ONEWEB-0090,2020-020D,2026-07-02T11:20:08.020320,13.11414721,.0001873,87.8885,18.0297,91.1345,268.9997,0,U,45427,999,30467,.3199309E-5,.14E-6,0
ONEWEB-0061,2020-020E,2026-07-02T12:06:06.704928,13.11417477,.00018109,87.8887,18.0079,89.1217,271.0118,0,U,45428,999,30463,-.77600389E-3,-.262E-5,0
